{
  "type": "FeatureCollection",
  "features": [
    {
      "type": "Feature",
      "properties": {
        "norad_id": 67033,
        "name": "STARLINK-36137",
        "group": "last-30-days",
        "lat": 8.872204532937145,
        "lon": -45.49640666340843,
        "alt_km": 295.57862378724076,
        "timestamp": "2025-12-18T23:35:47.784328+00:00",
        "meta_object_name": "STARLINK-36137",
        "meta_object_id": "2025-294D",
        "meta_epoch": "2025-12-17T20:00:01.999872",
        "meta_mean_motion": 15.94895855,
        "meta_eccentricity": 0.00017749,
        "meta_inclination": 42.9998,
        "meta_ra_of_asc_node": 151.3166,
        "meta_arg_of_pericenter": 276.4167,
        "meta_mean_anomaly": 126.1219,
        "meta_ephemeris_type": 0,
        "meta_classification_type": "U",
        "meta_norad_cat_id": 67033,
        "meta_element_set_no": 999,
        "meta_rev_at_epoch": 212,
        "meta_bstar": -0.0031853014,
        "meta_mean_motion_dot": -0.01275618,
        "meta_mean_motion_ddot": 0.00048515264,
        "tle_line1": "1 67033U 25294D   25351.83335648 -.01275618  48515-3 -31853-2 0  9997",
        "tle_line2": "2 67033  42.9998 151.3166 0001774 276.4167 126.1219 15.94895855  2123"
      },
      "geometry": {
        "type": "Point",
        "coordinates": [
          -45.49640666340843,
          8.872204532937145
        ]
      }
    },
    {
      "type": "Feature",
      "properties": {
        "norad_id": 67034,
        "name": "STARLINK-36140",
        "group": "last-30-days",
        "lat": 6.418652775524171,
        "lon": -42.79600409892979,
        "alt_km": 295.4230377999238,
        "timestamp": "2025-12-18T23:35:47.784339+00:00",
        "meta_object_name": "STARLINK-36140",
        "meta_object_id": "2025-294E",
        "meta_epoch": "2025-12-17T20:00:01.999872",
        "meta_mean_motion": 15.9506516,
        "meta_eccentricity": 0.00017156,
        "meta_inclination": 42.9999,
        "meta_ra_of_asc_node": 151.309,
        "meta_arg_of_pericenter": 275.5249,
        "meta_mean_anomaly": 130.0295,
        "meta_ephemeris_type": 0,
        "meta_classification_type": "U",
        "meta_norad_cat_id": 67034,
        "meta_element_set_no": 999,
        "meta_rev_at_epoch": 212,
        "meta_bstar": -0.0032034501,
        "meta_mean_motion_dot": -0.01294426,
        "meta_mean_motion_ddot": 0.000499169,
        "tle_line1": "1 67034U 25294E   25351.83335648 -.01294426  49917-3 -32035-2 0  9996",
        "tle_line2": "2 67034  42.9999 151.3090 0001715 275.5249 130.0295 15.95065160  2124"
      },
      "geometry": {
        "type": "Point",
        "coordinates": [
          -42.79600409892979,
          6.418652775524171
        ]
      }
    },
    {
      "type": "Feature",
      "properties": {
        "norad_id": 67035,
        "name": "STARLINK-36085",
        "group": "last-30-days",
        "lat": 3.773109455452522,
        "lon": -39.930311550153306,
        "alt_km": 295.4362832691586,
        "timestamp": "2025-12-18T23:35:47.784349+00:00",
        "meta_object_name": "STARLINK-36085",
        "meta_object_id": "2025-294F",
        "meta_epoch": "2025-12-17T20:00:01.999872",
        "meta_mean_motion": 15.95243,
        "meta_eccentricity": 0.0001773,
        "meta_inclination": 42.9999,
        "meta_ra_of_asc_node": 151.3007,
        "meta_arg_of_pericenter": 280.3093,
        "meta_mean_anomaly": 128.4504,
        "meta_ephemeris_type": 0,
        "meta_classification_type": "U",
        "meta_norad_cat_id": 67035,
        "meta_element_set_no": 999,
        "meta_rev_at_epoch": 212,
        "meta_bstar": -0.0031989221,
        "meta_mean_motion_dot": -0.0130497,
        "meta_mean_motion_ddot": 0.00050754214,
        "tle_line1": "1 67035U 25294F   25351.83335648 -.01304970  50754-3 -31989-2 0  9991",
        "tle_line2": "2 67035  42.9999 151.3007 0001773 280.3093 128.4504 15.95243000  2123"
      },
      "geometry": {
        "type": "Point",
        "coordinates": [
          -39.930311550153306,
          3.773109455452522
        ]
      }
    },
    {
      "type": "Feature",
      "properties": {
        "norad_id": 67036,
        "name": "STARLINK-36125",
        "group": "last-30-days",
        "lat": 5.097991238227763,
        "lon": -41.36084010618616,
        "alt_km": 295.31692719964394,
        "timestamp": "2025-12-18T23:35:47.784359+00:00",
        "meta_object_name": "STARLINK-36125",
        "meta_object_id": "2025-294G",
        "meta_epoch": "2025-12-17T20:00:01.999872",
        "meta_mean_motion": 15.95151961,
        "meta_eccentricity": 0.0001675,
        "meta_inclination": 42.9998,
        "meta_ra_of_asc_node": 151.3048,
        "meta_arg_of_pericenter": 275.4046,
        "meta_mean_anomaly": 131.7507,
        "meta_ephemeris_type": 0,
        "meta_classification_type": "U",
        "meta_norad_cat_id": 67036,
        "meta_element_set_no": 999,
        "meta_rev_at_epoch": 212,
        "meta_bstar": -0.0031961879,
        "meta_mean_motion_dot": -0.01297515,
        "meta_mean_motion_ddot": 0.00050178902,
        "tle_line1": "1 67036U 25294G   25351.83335648 -.01297515  50179-3 -31962-2 0  9990",
        "tle_line2": "2 67036  42.9998 151.3048 0001675 275.4046 131.7507 15.95151961  2126"
      },
      "geometry": {
        "type": "Point",
        "coordinates": [
          -41.36084010618616,
          5.097991238227763
        ]
      }
    },
    {
      "type": "Feature",
      "properties": {
        "norad_id": 67037,
        "name": "STARLINK-35732",
        "group": "last-30-days",
        "lat": 2.3512827461063237,
        "lon": -38.4024926323469,
        "alt_km": 295.3742007672454,
        "timestamp": "2025-12-18T23:35:47.784369+00:00",
        "meta_object_name": "STARLINK-35732",
        "meta_object_id": "2025-294H",
        "meta_epoch": "2025-12-17T20:00:01.999872",
        "meta_mean_motion": 15.95339918,
        "meta_eccentricity": 0.00017942,
        "meta_inclination": 42.9999,
        "meta_ra_of_asc_node": 151.2965,
        "meta_arg_of_pericenter": 280.1039,
        "meta_mean_anomaly": 130.3987,
        "meta_ephemeris_type": 0,
        "meta_classification_type": "U",
        "meta_norad_cat_id": 67037,
        "meta_element_set_no": 999,
        "meta_rev_at_epoch": 212,
        "meta_bstar": -0.0032136783,
        "meta_mean_motion_dot": -0.01317743,
        "meta_mean_motion_ddot": 0.00051717762,
        "tle_line1": "1 67037U 25294H   25351.83335648 -.01317743  51718-3 -32137-2 0  9992",
        "tle_line2": "2 67037  42.9999 151.2965 0001794 280.1039 130.3987 15.95339918  2129"
      },
      "geometry": {
        "type": "Point",
        "coordinates": [
          -38.4024926323469,
          2.3512827461063237
        ]
      }
    },
    {
      "type": "Feature",
      "properties": {
        "norad_id": 67038,
        "name": "STARLINK-35775",
        "group": "last-30-days",
        "lat": 1.1557123157464166,
        "lon": -37.12204476152716,
        "alt_km": 295.32991608793236,
        "timestamp": "2025-12-18T23:35:47.784379+00:00",
        "meta_object_name": "STARLINK-35775",
        "meta_object_id": "2025-294J",
        "meta_epoch": "2025-12-17T20:00:01.999872",
        "meta_mean_motion": 15.95418502,
        "meta_eccentricity": 0.00018335,
        "meta_inclination": 43,
        "meta_ra_of_asc_node": 151.2927,
        "meta_arg_of_pericenter": 281.1029,
        "meta_mean_anomaly": 130.8423,
        "meta_ephemeris_type": 0,
        "meta_classification_type": "U",
        "meta_norad_cat_id": 67038,
        "meta_element_set_no": 999,
        "meta_rev_at_epoch": 217,
        "meta_bstar": -0.0032079464,
        "meta_mean_motion_dot": -0.01320978,
        "meta_mean_motion_ddot": 0.00051991568,
        "tle_line1": "1 67038U 25294J   25351.83335648 -.01320978  51992-3 -32079-2 0  9996",
        "tle_line2": "2 67038  43.0000 151.2927 0001833 281.1029 130.8423 15.95418502  2179"
      },
      "geometry": {
        "type": "Point",
        "coordinates": [
          -37.12204476152716,
          1.1557123157464166
        ]
      }
    },
    {
      "type": "Feature",
      "properties": {
        "norad_id": 67039,
        "name": "STARLINK-35705",
        "group": "last-30-days",
        "lat": -1.3290163174082652,
        "lon": -34.46396305494605,
        "alt_km": 295.0937627142239,
        "timestamp": "2025-12-18T23:35:47.784389+00:00",
        "meta_object_name": "STARLINK-35705",
        "meta_object_id": "2025-294K",
        "meta_epoch": "2025-12-17T20:00:01.999872",
        "meta_mean_motion": 15.95587537,
        "meta_eccentricity": 0.00018051,
        "meta_inclination": 43,
        "meta_ra_of_asc_node": 151.2852,
        "meta_arg_of_pericenter": 279.6905,
        "meta_mean_anomaly": 135.2574,
        "meta_ephemeris_type": 0,
        "meta_classification_type": "U",
        "meta_norad_cat_id": 67039,
        "meta_element_set_no": 999,
        "meta_rev_at_epoch": 212,
        "meta_bstar": -0.0032117408,
        "meta_mean_motion_dot": -0.01334562,
        "meta_mean_motion_ddot": 0.00053065197,
        "tle_line1": "1 67039U 25294K   25351.83335648 -.01334562  53065-3 -32117-2 0  9997",
        "tle_line2": "2 67039  43.0000 151.2852 0001805 279.6905 135.2574 15.95587537  2127"
      },
      "geometry": {
        "type": "Point",
        "coordinates": [
          -34.46396305494605,
          -1.3290163174082652
        ]
      }
    }
  ]
}